[{"OBJECT_NAME":"STARLINK-30389","OBJECT_ID":"2023-134N","EPOCH":"2023-11-17T02:28:00.528960","MEAN_MOTION":15.04450894,"ECCENTRICITY":0.0001462,"INCLINATION":42.9971,"RA_OF_ASC_NODE":101.3443,"ARG_OF_PERICENTER":268.3474,"MEAN_ANOMALY":91.7201,"EPHEMERIS_TYPE":0,"CLASSIFICATION_TYPE":"U","NORAD_CAT_ID":57783,"ELEMENT_SET_NO":999,"REV_AT_EPOCH":1233,"BSTAR":-0.00015126,"MEAN_MOTION_DOT":-2.357e-5,"MEAN_MOTION_DDOT":0},{"OBJECT_NAME":"STARLINK-30388","OBJECT_ID":"2023-134P","EPOCH":"2023-11-17T02:20:46.739616","MEAN_MOTION":15.04306594,"ECCENTRICITY":0.0004163,"INCLINATION":43.0013,"RA_OF_ASC_NODE":101.3038,"ARG_OF_PERICENTER":50.1599,"MEAN_ANOMALY":309.961,"EPHEMERIS_TYPE":0,"CLASSIFICATION_TYPE":"U","NORAD_CAT_ID":57784,"ELEMENT_SET_NO":999,"REV_AT_EPOCH":1257,"BSTAR":-0.001588,"MEAN_MOTION_DOT":-0.00022628,"MEAN_MOTION_DDOT":0},{"OBJECT_NAME":"STARLINK-30381","OBJECT_ID":"2023-134Q","EPOCH":"2023-11-16T19:23:57.835392","MEAN_MOTION":15.02540438,"ECCENTRICITY":0.0001465,"INCLINATION":43.0003,"RA_OF_ASC_NODE":102.4837,"ARG_OF_PERICENTER":278.2743,"MEAN_ANOMALY":81.7933,"EPHEMERIS_TYPE":0,"CLASSIFICATION_TYPE":"U","NORAD_CAT_ID":57785,"ELEMENT_SET_NO":999,"REV_AT_EPOCH":1253,"BSTAR":0.00021105,"MEAN_MOTION_DOT":2.649e-5,"MEAN_MOTION_DDOT":0},{"OBJECT_NAME":"STARLINK-30382","OBJECT_ID":"2023-134R","EPOCH":"2023-11-16T18:19:21.072576","MEAN_MOTION":15.04476241,"ECCENTRICITY":0.0001622,"INCLINATION":42.9997,"RA_OF_ASC_NODE":103.0958,"ARG_OF_PERICENTER":292.5154,"MEAN_ANOMALY":67.5517,"EPHEMERIS_TYPE":0,"CLASSIFICATION_TYPE":"U","NORAD_CAT_ID":57786,"ELEMENT_SET_NO":999,"REV_AT_EPOCH":1252,"BSTAR":8.8253e-5,"MEAN_MOTION_DOT":1.048e-5,"MEAN_MOTION_DDOT":0},{"OBJECT_NAME":"STARLINK-30378","OBJECT_ID":"2023-134S","EPOCH":"2023-11-16T19:23:41.152416","MEAN_MOTION":15.04484572,"ECCENTRICITY":0.0001348,"INCLINATION":43.0014,"RA_OF_ASC_NODE":102.5655,"ARG_OF_PERICENTER":271.3611,"MEAN_ANOMALY":88.7078,"EPHEMERIS_TYPE":0,"CLASSIFICATION_TYPE":"U","NORAD_CAT_ID":57787,"ELEMENT_SET_NO":999,"REV_AT_EPOCH":1253,"BSTAR":7.4007e-5,"MEAN_MOTION_DOT":8.46e-6,"MEAN_MOTION_DDOT":0},{"OBJECT_NAME":"STARLINK-30387","OBJECT_ID":"2023-134T","EPOCH":"2023-11-17T02:39:05.618016","MEAN_MOTION":15.15959109,"ECCENTRICITY":0.0001169,"INCLINATION":42.9999,"RA_OF_ASC_NODE":95.357,"ARG_OF_PERICENTER":314.9247,"MEAN_ANOMALY":45.1505,"EPHEMERIS_TYPE":0,"CLASSIFICATION_TYPE":"U","NORAD_CAT_ID":57788,"ELEMENT_SET_NO":999,"REV_AT_EPOCH":1264,"BSTAR":0.00039328,"MEAN_MOTION_DOT":7.459e-5,"MEAN_MOTION_DDOT":0},{"OBJECT_NAME":"STARLINK-30372","OBJECT_ID":"2023-134U","EPOCH":"2023-11-16T18:12:13.785696","MEAN_MOTION":15.02531503,"ECCENTRICITY":0.0001427,"INCLINATION":43.0002,"RA_OF_ASC_NODE":103.0541,"ARG_OF_PERICENTER":277.8068,"MEAN_ANOMALY":82.2613,"EPHEMERIS_TYPE":0,"CLASSIFICATION_TYPE":"U","NORAD_CAT_ID":57789,"ELEMENT_SET_NO":999,"REV_AT_EPOCH":1252,"BSTAR":3.4733e-5,"MEAN_MOTION_DOT":2.66e-6,"MEAN_MOTION_DDOT":0},{"OBJECT_NAME":"STARLINK-30373","OBJECT_ID":"2023-134V","EPOCH":"2023-11-17T02:30:03.251520","MEAN_MOTION":15.0254269,"ECCENTRICITY":0.0001556,"INCLINATION":43.003,"RA_OF_ASC_NODE":101.3246,"ARG_OF_PERICENTER":278.3049,"MEAN_ANOMALY":81.7617,"EPHEMERIS_TYPE":0,"CLASSIFICATION_TYPE":"U","NORAD_CAT_ID":57790,"ELEMENT_SET_NO":999,"REV_AT_EPOCH":1257,"BSTAR":0.00017396,"MEAN_MOTION_DOT":2.147e-5,"MEAN_MOTION_DDOT":0},{"OBJECT_NAME":"STARLINK-30367","OBJECT_ID":"2023-134W","EPOCH":"2023-11-16T21:11:28.707360","MEAN_MOTION":15.04483234,"ECCENTRICITY":0.0001245,"INCLINATION":43.0018,"RA_OF_ASC_NODE":102.2685,"ARG_OF_PERICENTER":281.2782,"MEAN_ANOMALY":78.7921,"EPHEMERIS_TYPE":0,"CLASSIFICATION_TYPE":"U","NORAD_CAT_ID":57791,"ELEMENT_SET_NO":999,"REV_AT_EPOCH":1239,"BSTAR":0.00011199,"MEAN_MOTION_DOT":1.386e-5,"MEAN_MOTION_DDOT":0},{"OBJECT_NAME":"TIANQI-21","OBJECT_ID":"2023-135A","EPOCH":"2023-11-17T02:47:16.300032","MEAN_MOTION":14.21996104,"ECCENTRICITY":0.0013111,"INCLINATION":49.9698,"RA_OF_ASC_NODE":157.3487,"ARG_OF_PERICENTER":204.756,"MEAN_ANOMALY":155.2723,"EPHEMERIS_TYPE":0,"CLASSIFICATION_TYPE":"U","NORAD_CAT_ID":57792,"ELEMENT_SET_NO":999,"REV_AT_EPOCH":1037,"BSTAR":6.6891e-6,"MEAN_MOTION_DOT":-1.44e-6,"MEAN_MOTION_DDOT":0},{"OBJECT_NAME":"TIANQI-22","OBJECT_ID":"2023-135B","EPOCH":"2023-11-17T04:02:35.248128","MEAN_MOTION":14.22003245,"ECCENTRICITY":0.0013366,"INCLINATION":49.9661,"RA_OF_ASC_NODE":157.6186,"ARG_OF_PERICENTER":206.6754,"MEAN_ANOMALY":153.3472,"EPHEMERIS_TYPE":0,"CLASSIFICATION_TYPE":"U","NORAD_CAT_ID":57793,"ELEMENT_SET_NO":999,"REV_AT_EPOCH":1037,"BSTAR":0.00016046,"MEAN_MOTION_DOT":1.99e-6,"MEAN_MOTION_DDOT":0},{"OBJECT_NAME":"TIANQI-23","OBJECT_ID":"2023-135C","EPOCH":"2023-11-17T03:12:46.948608","MEAN_MOTION":14.22016963,"ECCENTRICITY":0.0014214,"INCLINATION":49.9712,"RA_OF_ASC_NODE":157.4532,"ARG_OF_PERICENTER":210.2601,"MEAN_ANOMALY":149.7491,"EPHEMERIS_TYPE":0,"CLASSIFICATION_TYPE":"U","NORAD_CAT_ID":57794,"ELEMENT_SET_NO":999,"REV_AT_EPOCH":1037,"BSTAR":4.5924e-5,"MEAN_MOTION_DOT":-5.6e-7,"MEAN_MOTION_DDOT":0},{"OBJECT_NAME":"TIANQI-24","OBJECT_ID":"2023-135D","EPOCH":"2023-11-17T03:37:45.698304","MEAN_MOTION":14.22026937,"ECCENTRICITY":0.0013695,"INCLINATION":49.9719,"RA_OF_ASC_NODE":157.5544,"ARG_OF_PERICENTER":209.9928,"MEAN_ANOMALY":150.0201,"EPHEMERIS_TYPE":0,"CLASSIFICATION_TYPE":"U","NORAD_CAT_ID":57795,"ELEMENT_SET_NO":999,"REV_AT_EPOCH":1037,"BSTAR":0.00018642,"MEAN_MOTION_DOT":2.57e-6,"MEAN_MOTION_DDOT":0},{"OBJECT_NAME":"YAOGAN-33 03","OBJECT_ID":"2023-136A","EPOCH":"2023-11-17T03:24:45.931392","MEAN_MOTION":14.59400513,"ECCENTRICITY":0.0002374,"INCLINATION":98.1643,"RA_OF_ASC_NODE":243.3588,"ARG_OF_PERICENTER":80.2522,"MEAN_ANOMALY":279.8946,"EPHEMERIS_TYPE":0,"CLASSIFICATION_TYPE":"U","NORAD_CAT_ID":57797,"ELEMENT_SET_NO":999,"REV_AT_EPOCH":1041,"BSTAR":0.00016971,"MEAN_MOTION_DOT":7.58e-6,"MEAN_MOTION_DDOT":0},{"OBJECT_NAME":"XRISM","OBJECT_ID":"2023-137A","EPOCH":"2023-11-17T04:42:36.923616","MEAN_MOTION":14.98623639,"ECCENTRICITY":0.0010514,"INCLINATION":31.0045,"RA_OF_ASC_NODE":285.5305,"ARG_OF_PERICENTER":259.2503,"MEAN_ANOMALY":100.6949,"EPHEMERIS_TYPE":0,"CLASSIFICATION_TYPE":"U","NORAD_CAT_ID":57800,"ELEMENT_SET_NO":999,"REV_AT_EPOCH":1068,"BSTAR":0.00033564,"MEAN_MOTION_DOT":4.208e-5,"MEAN_MOTION_DDOT":0},{"OBJECT_NAME":"STARLINK-30304","OBJECT_ID":"2023-138A","EPOCH":"2023-11-16T21:36:57.106944","MEAN_MOTION":15.02547662,"ECCENTRICITY":0.0001795,"INCLINATION":43.0002,"RA_OF_ASC_NODE":141.3806,"ARG_OF_PERICENTER":281.0428,"MEAN_ANOMALY":79.0213,"EPHEMERIS_TYPE":0,"CLASSIFICATION_TYPE":"U","NORAD_CAT_ID":57808,"ELEMENT_SET_NO":999,"REV_AT_EPOCH":1172,"BSTAR":0.00054868,"MEAN_MOTION_DOT":7.218e-5,"MEAN_MOTION_DDOT":0},{"OBJECT_NAME":"STARLINK-30374","OBJECT_ID":"2023-138B","EPOCH":"2023-11-16T21:32:09.674880","MEAN_MOTION":15.02535638,"ECCENTRICITY":0.0001167,"INCLINATION":43.0016,"RA_OF_ASC_NODE":141.3559,"ARG_OF_PERICENTER":263.3163,"MEAN_ANOMALY":96.7546,"EPHEMERIS_TYPE":0,"CLASSIFICATION_TYPE":"U","NORAD_CAT_ID":57809,"ELEMENT_SET_NO":999,"REV_AT_EPOCH":1178,"BSTAR":0.00017763,"MEAN_MOTION_DOT":2.197e-5,"MEAN_MOTION_DDOT":0}]
