STARLINK-30389          
1 57783U 23134N   23321.10278390 -.00002357  00000+0 -15126-3 0  9990
2 57783  42.9971 101.3443 0001462 268.3474  91.7201 15.04450894 12336
STARLINK-30388          
1 57784U 23134P   23321.09776319 -.00022628  00000+0 -15880-2 0  9992
2 57784  43.0013 101.3038 0004163  50.1599 309.9610 15.04306594 12573
STARLINK-30381          
1 57785U 23134Q   23320.80830828  .00002649  00000+0  21105-3 0  9994
2 57785  43.0003 102.4837 0001465 278.2743  81.7933 15.02540438 12532
STARLINK-30382          
1 57786U 23134R   23320.76343834  .00001048  00000+0  88253-4 0  9996
2 57786  42.9997 103.0958 0001622 292.5154  67.5517 15.04476241 12525
STARLINK-30378          
1 57787U 23134S   23320.80811519  .00000846  00000+0  74007-4 0  9999
2 57787  43.0014 102.5655 0001348 271.3611  88.7078 15.04484572 12538
STARLINK-30387          
1 57788U 23134T   23321.11048169  .00007459  00000+0  39328-3 0  9991
2 57788  42.9999  95.3570 0001169 314.9247  45.1505 15.15959109 12643
STARLINK-30372          
1 57789U 23134U   23320.75849289  .00000266  00000+0  34733-4 0  9998
2 57789  43.0002 103.0541 0001427 277.8068  82.2613 15.02531503 12520
STARLINK-30373          
1 57790U 23134V   23321.10420430  .00002147  00000+0  17396-3 0  9998
2 57790  43.0030 101.3246 0001556 278.3049  81.7617 15.02542690 12576
STARLINK-30367          
1 57791U 23134W   23320.88297115  .00001386  00000+0  11199-3 0  9994
2 57791  43.0018 102.2685 0001245 281.2782  78.7921 15.04483234 12396
TIANQI-21               
1 57792U 23135A   23321.11616088 -.00000144  00000+0  66891-5 0  9990
2 57792  49.9698 157.3487 0013111 204.7560 155.2723 14.21996104 10376
TIANQI-22               
1 57793U 23135B   23321.16846352  .00000199  00000+0  16046-3 0  9999
2 57793  49.9661 157.6186 0013366 206.6754 153.3472 14.22003245 10370
TIANQI-23               
1 57794U 23135C   23321.13387672 -.00000056  00000+0  45924-4 0  9993
2 57794  49.9712 157.4532 0014214 210.2601 149.7491 14.22016963 10377
TIANQI-24               
1 57795U 23135D   23321.15122336  .00000257  00000+0  18642-3 0  9998
2 57795  49.9719 157.5544 0013695 209.9928 150.0201 14.22026937 10374
YAOGAN-33 03            
1 57797U 23136A   23321.14219828  .00000758  00000+0  16971-3 0  9992
2 57797  98.1643 243.3588 0002374  80.2522 279.8946 14.59400513 10419
XRISM                   
1 57800U 23137A   23321.19626069  .00004208  00000+0  33564-3 0  9993
2 57800  31.0045 285.5305 0010514 259.2503 100.6949 14.98623639 10685
STARLINK-30304          
1 57808U 23138A   23320.90066096  .00007218  00000+0  54868-3 0  9992
2 57808  43.0002 141.3806 0001795 281.0428  79.0213 15.02547662 11720
STARLINK-30374          
1 57809U 23138B   23320.89733420  .00002197  00000+0  17763-3 0  9997
2 57809  43.0016 141.3559 0001167 263.3163  96.7546 15.02535638 11784
